{
    "links": {
        "self": "http://www.neowsapp.com/rest/v1/neo/3671000?api_key=iIulBulltgU6a56xZRHN4H3l9WmuAYTsLGpBGhQ2"
    },
    "id": "3671000",
    "neo_reference_id": "3671000",
    "name": "(2014 HV190)",
    "designation": "2014 HV190",
    "nasa_jpl_url": "http://ssd.jpl.nasa.gov/sbdb.cgi?sstr=3671000",
    "absolute_magnitude_h": 26.1,
    "estimated_diameter": {
        "kilometers": {
            "estimated_diameter_min": 0.0160160338,
            "estimated_diameter_max": 0.0358129403
        },
        "meters": {
            "estimated_diameter_min": 16.0160337979,
            "estimated_diameter_max": 35.8129403019
        },
        "miles": {
            "estimated_diameter_min": 0.0099518989,
            "estimated_diameter_max": 0.0222531225
        },
        "feet": {
            "estimated_diameter_min": 52.5460443254,
            "estimated_diameter_max": 117.4965270602
        }
    },
    "is_potentially_hazardous_asteroid": false,
    "close_approach_data": [
        {
            "close_approach_date": "2014-05-05",
            "close_approach_date_full": "2014-May-05 15:34",
            "epoch_date_close_approach": 1399304040000,
            "relative_velocity": {
                "kilometers_per_second": "4.5102579661",
                "kilometers_per_hour": "16236.9286779879",
                "miles_per_hour": "10088.9960443864"
            },
            "miss_distance": {
                "astronomical": "0.1697635919",
                "lunar": "66.0380372491",
                "kilometers": "25396271.751789253",
                "miles": "15780511.5145195714"
            },
            "orbiting_body": "Earth"
        }
    ],
    "orbital_data": {
        "orbit_id": "8",
        "orbit_determination_date": "2017-04-06 08:41:09",
        "first_observation_date": "2014-04-25",
        "last_observation_date": "2014-05-05",
        "data_arc_in_days": 10,
        "observations_used": 12,
        "orbit_uncertainty": "9",
        "minimum_orbit_intersection": ".169721",
        "jupiter_tisserand_invariant": "3.352",
        "epoch_osculation": "2456775.5",
        "eccentricity": ".5050170885110273",
        "semi_major_axis": "2.379840514187172",
        "inclination": "3.318094455377693",
        "ascending_node_longitude": "229.1435119245031",
        "orbital_period": "1340.973536494343",
        "perihelion_distance": "1.17798038659178",
        "perihelion_argument": "353.3107791377945",
        "aphelion_distance": "3.581700641782564",
        "perihelion_time": "2456780.715504988006",
        "mean_anomaly": "358.5998368017085",
        "mean_motion": ".2684616737039678",
        "equinox": "J2000",
        "orbit_class": {
            "orbit_class_type": "AMO",
            "orbit_class_description": "Near-Earth asteroid orbits similar to that of 1221 Amor",
            "orbit_class_range": "1.017 AU < q (perihelion) < 1.3 AU"
        }
    },
    "is_sentry_object": false
}